ORBCOMM FM115           
1 41186U 15081H   24137.24517960  .00002468  00000+0  53668-3 0  9996
2 41186  46.9966 124.8626 0000834 335.1296  24.9550 14.60696208449706
ORBCOMM FM108           
1 41187U 15081J   24136.41628747  .00001999  00000+0  48132-3 0  9999
2 41187  47.0024 183.2505 0003671 280.3392  79.7079 14.56612340448779
ORBCOMM FM117           
1 41188U 15081K   24136.93090601  .00001575  00000+0  38735-3 0  9997
2 41188  46.9989 179.7184 0004063 292.8545  67.1911 14.56587782448941
ORBCOMM FM116           
1 41189U 15081L   24136.37135510  .00003193  00000+0  74620-3 0  9996
2 41189  47.0006 272.1733 0001429   7.8779 352.2128 14.56619709447625
